NORAD_CAT_ID,OBJECT_NAME,OBJECT_TYPE,EPOCH,MEAN_MOTION,ECCENTRICITY,INCLINATION,RA_OF_ASC_NODE,ARG_OF_PERICENTER,MEAN_ANOMALY,BSTAR,MEAN_MOTION_DOT,MEAN_MOTION_DDOT,TLE_LINE0,TLE_LINE1,TLE_LINE2,SEMIMAJOR_AXIS,PERIOD,APOGEE,PERIGEE,DECAYED
52547.0,STARLINK-3869,PAYLOAD,2024-03-31 08:13:43,15.09082236,0.0001404,53.217,74.0053,94.3982,265.7171,0.0012565,0.00019899,0.0,0 STARLINK-3869,1 52547U 22051Q   24091.34286300  .00019899  00000-0  12565-2 0  9992,2 52547  53.2170  74.0053 0001404  94.3982 265.7171 15.09082236104501,6917.14,95.422,539.976,538.034,0.0
52547.0,STARLINK-3869,PAYLOAD,2024-03-31 16:10:34,15.09081199,0.0001347,53.2171,72.5183,90.9638,269.1509,0.0012512,0.00019813,0.0,0 STARLINK-3869,1 52547U 22051Q   24091.67401261  .00019813  00000-0  12512-2 0  9991,2 52547  53.2171  72.5183 0001347  90.9638 269.1509 15.09081199104550,6917.143,95.422,539.94,538.076,0.0
52547.0,STARLINK-3869,PAYLOAD,2024-04-01 04:53:32,15.09104865,0.0001359,53.2172,70.1387,91.2708,268.844,0.001319,0.00020919,0.0,0 STARLINK-3869,1 52547U 22051Q   24092.20384277  .00020919  00000-0  13190-2 0  9990,2 52547  53.2172  70.1387 0001359  91.2708 268.8440 15.09104865104563,6917.071,95.421,539.876,537.996,0.0
52547.0,STARLINK-3869,PAYLOAD,2024-04-02 04:44:02,15.09147622,0.000138,53.2177,65.6776,90.9345,269.1806,0.0012523,0.00019867,0.0,0 STARLINK-3869,1 52547U 22051Q   24093.19725251  .00019867  00000-0  12523-2 0  9999,2 52547  53.2177  65.6776 0001380  90.9345 269.1806 15.09147622104788,6916.94,95.418,539.76,537.851,0.0
52547.0,STARLINK-3869,PAYLOAD,2024-04-02 07:54:46,15.09153443,0.0001383,53.2177,65.0828,90.3369,269.7782,0.0012609,0.00020009,0.0,0 STARLINK-3869,1 52547U 22051Q   24093.32970506  .00020009  00000-0  12609-2 0  9994,2 52547  53.2177  65.0828 0001383  90.3369 269.7782 15.09153443104735,6916.922,95.418,539.744,537.831,0.0
52547.0,STARLINK-3869,PAYLOAD,2024-04-03 02:59:09,15.09183987,0.0001372,53.218,61.5131,92.6879,267.427,0.0011434,0.00018128,0.0,0 STARLINK-3869,1 52547U 22051Q   24094.12441034  .00018128  00000-0  11434-2 0  9996,2 52547  53.2180  61.5131 0001372  92.6879 267.4270 15.09183987104852,6916.829,95.416,539.643,537.745,0.0
52547.0,STARLINK-3869,PAYLOAD,2024-04-04 04:24:57,15.09195623,0.0001963,53.2192,56.7522,98.463,261.6585,0.00031472,4.772e-05,0.0,0 STARLINK-3869,1 52547U 22051Q   24095.18400218  .00004772  00000-0  31472-3 0  9997,2 52547  53.2192  56.7522 0001963  98.4630 261.6585 15.09195623105081,6916.794,95.415,540.016,537.301,0.0
52547.0,STARLINK-3869,PAYLOAD,2024-04-04 07:35:42,15.09148622,0.0001591,53.2181,56.1594,90.5205,269.597,-0.0013045,-0.00021165,0.0,0 STARLINK-3869,1 52547U 22051Q   24095.31646441 -.00021165  00000-0 -13045-2 0  9994,2 52547  53.2181  56.1594 0001591  90.5205 269.5970 15.09148622105105,6916.937,95.418,539.903,537.702,0.0
52547.0,STARLINK-3869,PAYLOAD,2024-04-04 13:57:12,15.0906202,0.0002168,53.2186,54.97,85.6895,274.4345,-0.0033039,-0.00052806,0.0,0 STARLINK-3869,1 52547U 22051Q   24095.58139807 -.00052806  00000-0 -33039-2 0  9997,2 52547  53.2186  54.9700 0002168  85.6895 274.4345 15.09062020105070,6917.202,95.424,540.566,537.567,0.0
52547.0,STARLINK-3869,PAYLOAD,2024-04-05 04:15:43,15.08715968,0.0001177,53.22,52.2889,81.8528,278.2598,-0.0088717,-0.00138309,0.0,0 STARLINK-3869,1 52547U 22051Q   24096.17759161 -.00138309  00000-0 -88717-2 0  9990,2 52547  53.2200  52.2889 0001177  81.8528 278.2598 15.08715968105231,6918.26,95.445,540.939,539.31,0.0
52547.0,STARLINK-3869,PAYLOAD,2024-04-05 12:12:47,15.08511782,0.0001114,53.2184,50.8065,99.621,260.4908,-0.0090423,-0.00140142,0.0,0 STARLINK-3869,1 52547U 22051Q   24096.50888776 -.00140142  00000-0 -90423-2 0  9997,2 52547  53.2184  50.8065 0001114  99.6210 260.4908 15.08511782105289,6918.884,95.458,541.52,539.978,0.0
52547.0,STARLINK-3869,PAYLOAD,2024-04-05 13:48:13,15.08465568,9.8e-05,53.2207,50.511,137.0891,223.0178,-0.009168,-0.00141871,0.0,0 STARLINK-3869,1 52547U 22051Q   24096.57515125 -.00141871  00000-0 -91680-2 0  9995,2 52547  53.2207  50.5110 0000980 137.0891 223.0178 15.08465568105223,6919.025,95.461,541.568,540.212,0.0
52547.0,STARLINK-3869,PAYLOAD,2024-04-05 20:09:55,15.0831163,0.0001215,53.2183,49.3205,118.5438,241.5676,-0.0086527,-0.00133509,0.0,0 STARLINK-3869,1 52547U 22051Q   24096.84022503 -.00133509  00000-0 -86527-2 0  9991,2 52547  53.2183  49.3205 0001215 118.5438 241.5676 15.08311630105330,6919.496,95.471,542.202,540.52,0.0
52547.0,STARLINK-3869,PAYLOAD,2024-04-06 06:00:00,15.0799981,0.000117,53.2176,47.483,92.3604,333.6171,0.0017684,0.00027327,0.0,0 STARLINK-3869,1 52547U 22051Q   24097.25001157  .00027327  00000-0  17684-2 0  9995,2 52547  53.2176  47.4830 0001170  92.3604 333.6171 15.07999810105399,6920.45,95.491,543.124,541.505,0.0
52547.0,STARLINK-3869,PAYLOAD,2024-04-06 14:00:01,15.08014355,0.0001106,53.2175,45.9867,96.3225,340.2391,0.00028237,4.111e-05,0.0,0 STARLINK-3869,1 52547U 22051Q   24097.58334491  .00004111  00000-0  28237-3 0  9994,2 52547  53.2175  45.9867 0001106  96.3225 340.2391 15.08014355  5775,6920.405,95.49,543.036,541.505,0.0
52547.0,STARLINK-3869,PAYLOAD,2024-04-06 22:00:00,15.08042959,0.0001162,53.2176,44.4922,98.4402,348.7197,-0.00060915,-9.759e-05,0.0,0 STARLINK-3869,1 52547U 22051Q   24097.91667824 -.00009759  00000-0 -60915-3 0  9994,2 52547  53.2176  44.4922 0001162  98.4402 348.7197 15.08042959105492,6920.318,95.488,542.987,541.379,0.0
52547.0,STARLINK-3869,PAYLOAD,2024-04-07 14:00:01,15.08009727,0.0001105,53.2178,41.5033,91.3607,17.0383,0.001909,0.0002954,0.0,0 STARLINK-3869,1 52547U 22051Q   24098.58334491  .00029540  00000-0  19090-2 0  9994,2 52547  53.2178  41.5033 0001105  91.3607  17.0383 15.08009727  5927,6920.419,95.49,543.049,541.52,0.0
52547.0,STARLINK-3869,PAYLOAD,2024-04-07 22:00:00,15.08010223,0.0001241,53.2179,40.0088,93.3596,25.6496,0.016171,0.00260782,0.0,0 STARLINK-3869,1 52547U 22051Q   24098.91667824  .00260782  00000-0  16171-1 0  9991,2 52547  53.2179  40.0088 0001241  93.3596  25.6496 15.08010223105645,6920.418,95.49,543.142,541.424,0.0
52547.0,STARLINK-3869,PAYLOAD,2024-04-08 14:00:01,15.08397796,0.0001395,53.2184,37.0192,88.7272,51.909,0.0198,0.00325758,0.0,0 STARLINK-3869,1 52547U 22051Q   24099.58334491  .00325758  00000-0  19800-1 0  9993,2 52547  53.2184  37.0192 0001395  88.7272  51.9090 15.08397796105748,6919.232,95.466,542.063,540.132,0.0
52547.0,STARLINK-3869,PAYLOAD,2024-04-08 22:00:00,15.08654,0.0001572,53.2186,35.5238,88.8608,62.9539,0.014396,0.00235378,0.0,0 STARLINK-3869,1 52547U 22051Q   24099.91667824  .00235378  00000-0  14396-1 0  9992,2 52547  53.2186  35.5238 0001572  88.8608  62.9539 15.08654000  5872,6918.449,95.449,541.402,539.226,0.0
52547.0,STARLINK-3869,PAYLOAD,2024-04-09 22:46:04,15.08720258,0.0001456,53.22,30.8926,53.7194,306.3933,0.0052803,0.00084479,0.0,0 STARLINK-3869,1 52547U 22051Q   24100.94866114  .00084479  00000-0  52803-2 0  9991,2 52547  53.2200  30.8926 0001456  53.7194 306.3933 15.08720258105887,6918.246,95.445,541.119,539.104,0.0
52547.0,STARLINK-3869,PAYLOAD,2024-04-10 03:32:13,15.08754479,0.000142,53.2204,30.0001,104.2841,255.8309,0.0042081,0.00067165,0.0,0 STARLINK-3869,1 52547U 22051Q   24101.14737857  .00067165  00000-0  42081-2 0  9995,2 52547  53.2204  30.0001 0001420 104.2841 255.8309 15.08754479105987,6918.142,95.443,540.989,539.024,0.0
52547.0,STARLINK-3869,PAYLOAD,2024-04-10 22:36:49,15.08826576,0.0001494,53.2194,26.4313,83.8368,276.2795,0.00084392,0.00013164,0.0,0 STARLINK-3869,1 52547U 22051Q   24101.94224251  .00013164  00000-0  84392-3 0  9994,2 52547  53.2194  26.4313 0001494  83.8368 276.2795 15.08826576106038,6917.921,95.438,540.82,538.753,0.0
52547.0,STARLINK-3869,PAYLOAD,2024-04-11 01:47:35,15.08836724,0.000167,53.2204,25.8396,98.196,261.9221,0.00071153,0.00011053,0.0,0 STARLINK-3869,1 52547U 22051Q   24102.07471820  .00011053  00000-0  71153-3 0  9991,2 52547  53.2204  25.8396 0001670  98.1960 261.9221 15.08836724106128,6917.89,95.438,540.911,538.6,0.0
52547.0,STARLINK-3869,PAYLOAD,2024-04-11 14:00:01,15.08813513,0.000137,53.2194,23.554,111.5384,132.8806,0.003007,0.00047859,0.0,0 STARLINK-3869,1 52547U 22051Q   24102.58334491  .00047859  00000-0  30070-2 0  9994,2 52547  53.2194  23.5540 0001370 111.5384 132.8806 15.08813513  5774,6917.961,95.439,540.774,538.879,0.0
52547.0,STARLINK-3869,PAYLOAD,2024-04-11 22:00:00,15.08873571,0.0001387,53.2194,22.0586,109.4948,146.5,-0.0025394,-0.00040512,0.0,0 STARLINK-3869,1 52547U 22051Q   24102.91667824 -.00040512  00000-0 -25394-2 0  9994,2 52547  53.2194  22.0586 0001387 109.4948 146.5000 15.08873571  5822,6917.778,95.435,540.602,538.683,0.0
52547.0,STARLINK-3869,PAYLOAD,2024-04-12 01:38:22,15.08842244,0.0001657,53.2203,21.381,117.3835,242.7326,0.00016821,2.39e-05,0.0,0 STARLINK-3869,1 52547U 22051Q   24103.06831376  .00002390  00000-0  16821-3 0  9992,2 52547  53.2203  21.3810 0001657 117.3835 242.7326 15.08842244106272,6917.874,95.437,540.885,538.592,0.0
52547.0,STARLINK-3869,PAYLOAD,2024-04-12 22:18:23,15.08841873,0.000162,53.2198,17.515,120.0761,240.0392,-3.606e-05,-8.62e-06,0.0,0 STARLINK-3869,1 52547U 22051Q   24103.92943340 -.00000862  00000-0 -36060-4 0  9994,2 52547  53.2198  17.5150 0001620 120.0761 240.0392 15.08841873106336,6917.875,95.437,540.86,538.619,0.0
52547.0,STARLINK-3869,PAYLOAD,2024-04-12 23:53:46,15.08843681,0.0001614,53.22,17.2178,120.4702,239.645,-7.1615e-05,-1.428e-05,0.0,0 STARLINK-3869,1 52547U 22051Q   24103.99567238 -.00001428  00000-0 -71615-4 0  9993,2 52547  53.2200  17.2178 0001614 120.4702 239.6450 15.08843681106348,6917.869,95.437,540.851,538.618,0.0
52547.0,STARLINK-3869,PAYLOAD,2024-04-14 02:55:19,15.08846119,0.0001251,53.22,12.1581,96.8068,263.3067,0.00016269,2.303e-05,0.0,0 STARLINK-3869,1 52547U 22051Q   24105.12175351  .00002303  00000-0  16269-3 0  9995,2 52547  53.2200  12.1581 0001251  96.8068 263.3067 15.08846119106581,6917.862,95.437,540.592,538.861,0.0
